COMMENT,ORIGINATOR,NORAD_CAT_ID,OBJECT_NAME,OBJECT_TYPE,CLASSIFICATION_TYPE,INTLDES,EPOCH,EPOCH_MICROSECONDS,MEAN_MOTION,ECCENTRICITY,INCLINATION,RA_OF_ASC_NODE,ARG_OF_PERICENTER,MEAN_ANOMALY,EPHEMERIS_TYPE,ELEMENT_SET_NO,REV_AT_EPOCH,BSTAR,MEAN_MOTION_DOT,MEAN_MOTION_DDOT,FILE,TLE_LINE0,TLE_LINE1,TLE_LINE2,OBJECT_ID,OBJECT_NUMBER,SEMIMAJOR_AXIS,PERIOD,APOGEE,PERIGEE,DECAYED
GENERATED VIA SPACETRACK.ORG API,18 SPCS,50803,STARLINK-3321,PAYLOAD,U,22001A,2024-01-12 12:34:43,208544,15.08845088,0.0001425,53.2163,102.8451,82.3524,277.763,0,999,11157,-1.006e-05,-4.48e-06,0.0,4160109,0 STARLINK-3321,1 50803U 22001A   24012.52411121 -.00000448  00000-0 -10060-4 0  9996,2 50803  53.2163 102.8451 0001425  82.3524 277.7630 15.08845088111579,2022-001A,50803,6917.865,95.437,540.716,538.744,1
GENERATED VIA SPACETRACK.ORG API,18 SPCS,50803,STARLINK-3321,PAYLOAD,U,22001A,2024-01-12 15:45:29,274048,15.0884643,0.00014,53.2162,102.2497,90.9468,269.1685,0,999,11159,6.6741e-06,-1.82e-06,0.0,4160399,0 STARLINK-3321,1 50803U 22001A   24012.65658882 -.00000182  00000-0  66741-5 0  9999,2 50803  53.2162 102.2497 0001400  90.9468 269.1685 15.08846430111596,2022-001A,50803,6917.861,95.437,540.694,538.757,1
GENERATED VIA SPACETRACK.ORG API,18 SPCS,50803,STARLINK-3321,PAYLOAD,U,22001A,2024-01-13 10:50:07,654272,15.08836917,0.000148,53.2163,98.6811,88.495,271.6212,0,999,11298,-2.7097e-05,-7.19e-06,0.0,4160749,0 STARLINK-3321,1 50803U 22001A   24013.45147748 -.00000719  00000-0 -27097-4 0  9999,2 50803  53.2163  98.6811 0001480  88.4950 271.6212 15.08836917112988,2022-001A,50803,6917.89,95.438,540.779,538.731,1
GENERATED VIA SPACETRACK.ORG API,18 SPCS,50803,STARLINK-3321,PAYLOAD,U,22001A,2024-01-13 12:25:30,529344,15.08839994,0.0001544,53.2167,98.3831,93.2553,266.8616,0,999,11172,1.3964e-05,-6.6e-07,0.0,4160970,0 STARLINK-3321,1 50803U 22001A   24013.51771446 -.00000066  00000-0  13964-4 0  9996,2 50803  53.2167  98.3831 0001544  93.2553 266.8616 15.08839994111728,2022-001A,50803,6917.88,95.438,540.814,538.677,1
GENERATED VIA SPACETRACK.ORG API,18 SPCS,50803,STARLINK-3321,PAYLOAD,U,22001A,2024-01-13 15:36:16,591392,15.0884227,0.000158,53.2165,97.7878,92.3881,267.7292,0,999,11301,4.3664e-05,4.07e-06,0.0,4161029,0 STARLINK-3321,1 50803U 22001A   24013.65019203  .00000407  00000-0  43664-4 0  9995,2 50803  53.2165  97.7878 0001580  92.3881 267.7292 15.08842270113019,2022-001A,50803,6917.873,95.437,540.831,538.645,1
GENERATED VIA SPACETRACK.ORG API,18 SPCS,50803,STARLINK-3321,PAYLOAD,U,22001A,2024-01-14 04:19:22,457856,15.08834561,0.000159,53.2176,95.4065,103.6239,256.493,0,999,11309,-3.5628e-05,-8.55e-06,0.0,4161266,0 STARLINK-3321,1 50803U 22001A   24014.18012104 -.00000855  00000-0 -35628-4 0  9997,2 50803  53.2176  95.4065 0001590 103.6239 256.4930 15.08834561113094,2022-001A,50803,6917.897,95.438,540.862,538.662,1
GENERATED VIA SPACETRACK.ORG API,18 SPCS,50803,STARLINK-3321,PAYLOAD,U,22001A,2024-01-14 10:40:54,588000,15.08839174,0.0001474,53.2164,94.2212,88.0279,272.0882,0,999,11313,2.5596e-05,1.19e-06,0.0,4161616,0 STARLINK-3321,1 50803U 22001A   24014.44507625  .00000119  00000-0  25596-4 0  9997,2 50803  53.2164  94.2212 0001474  88.0279 272.0882 15.08839174113133,2022-001A,50803,6917.883,95.438,540.768,538.728,1
GENERATED VIA SPACETRACK.ORG API,18 SPCS,50803,STARLINK-3321,PAYLOAD,U,22001A,2024-01-14 10:40:54,588000,15.08839174,0.0001474,53.2164,94.2212,88.0279,272.0882,0,999,11186,2.5596e-05,1.19e-06,0.0,4161833,0 STARLINK-3321,1 50803U 22001A   24014.44507625  .00000119  00000-0  25596-4 0  9997,2 50803  53.2164  94.2212 0001474  88.0279 272.0882 15.08839174111861,2022-001A,50803,6917.883,95.438,540.768,538.728,1
GENERATED VIA SPACETRACK.ORG API,18 SPCS,50803,STARLINK-3321,PAYLOAD,U,22001A,2024-01-15 10:31:41,484576,15.08843975,0.0001418,53.2164,89.7621,78.9813,281.1338,0,999,11201,4.0524e-05,3.57e-06,0.0,4162722,0 STARLINK-3321,1 50803U 22001A   24015.43867459  .00000357  00000-0  40524-4 0  9993,2 50803  53.2164  89.7621 0001418  78.9813 281.1338 15.08843975112013,2022-001A,50803,6917.868,95.437,540.714,538.752,1
GENERATED VIA SPACETRACK.ORG API,18 SPCS,50803,STARLINK-3321,PAYLOAD,U,22001A,2024-01-16 04:00:56,632896,15.0883418,0.0001719,53.2169,86.4924,86.1472,273.9716,0,999,11339,2.5757e-05,1.22e-06,0.0,4163060,0 STARLINK-3321,1 50803U 22001A   24016.16732214  .00000122  00000-0  25757-4 0  9995,2 50803  53.2169  86.4924 0001719  86.1472 273.9716 15.08834180113393,2022-001A,50803,6917.898,95.438,540.952,538.574,1
GENERATED VIA SPACETRACK.ORG API,18 SPCS,50803,STARLINK-3321,PAYLOAD,U,22001A,2024-01-16 10:22:29,766144,15.08831043,0.0001437,53.2172,85.3009,79.2104,280.905,0,999,11343,-5.8458e-05,-1.218e-05,0.0,4163287,0 STARLINK-3321,1 50803U 22001A   24016.43228896 -.00001218  00000-0 -58458-4 0  9994,2 50803  53.2172  85.3009 0001437  79.2104 280.9050 15.08831043113430,2022-001A,50803,6917.908,95.438,540.767,538.779,1
GENERATED VIA SPACETRACK.ORG API,18 SPCS,50803,STARLINK-3321,PAYLOAD,U,22001A,2024-01-16 10:22:29,766144,15.08831043,0.0001437,53.2172,85.3009,79.2104,280.905,0,999,11216,-5.8458e-05,-1.218e-05,0.0,4163580,0 STARLINK-3321,1 50803U 22001A   24016.43228896 -.00001218  00000-0 -58458-4 0  9994,2 50803  53.2172  85.3009 0001437  79.2104 280.9050 15.08831043112169,2022-001A,50803,6917.908,95.438,540.767,538.779,1
GENERATED VIA SPACETRACK.ORG API,18 SPCS,50803,STARLINK-3321,PAYLOAD,U,22001A,2024-01-16 23:05:34,651968,15.08838386,0.0001404,53.2166,82.9187,108.4475,251.667,0,999,11351,-7.0605e-05,-1.411e-05,0.0,4163901,0 STARLINK-3321,1 50803U 22001A   24016.96220662 -.00001411  00000-0 -70605-4 0  9998,2 50803  53.2166  82.9187 0001404 108.4475 251.6670 15.08838386113512,2022-001A,50803,6917.885,95.438,540.722,538.779,1
GENERATED VIA SPACETRACK.ORG API,18 SPCS,50803,STARLINK-3321,PAYLOAD,U,22001A,2024-01-17 11:48:39,223296,15.08843141,0.0001632,53.2177,80.5468,68.6325,291.4841,0,999,11359,8.8982e-05,1.129e-05,0.0,4164213,0 STARLINK-3321,1 50803U 22001A   24017.49212064  .00001129  00000-0  88982-4 0  9995,2 50803  53.2177  80.5468 0001632  68.6325 291.4841 15.08843141113599,2022-001A,50803,6917.871,95.437,540.865,538.607,1
GENERATED VIA SPACETRACK.ORG API,18 SPCS,50803,STARLINK-3321,PAYLOAD,U,22001A,2024-01-17 11:48:39,223296,15.08843141,0.0001632,53.2177,80.5468,68.6325,291.4841,0,999,11232,8.8982e-05,1.129e-05,0.0,4164412,0 STARLINK-3321,1 50803U 22001A   24017.49212064  .00001129  00000-0  88982-4 0  9995,2 50803  53.2177  80.5468 0001632  68.6325 291.4841 15.08843141112329,2022-001A,50803,6917.871,95.437,540.865,538.607,1
GENERATED VIA SPACETRACK.ORG API,18 SPCS,50803,STARLINK-3321,PAYLOAD,U,22001A,2024-01-17 22:56:21,399936,15.0883017,0.0002303,53.218,78.4696,43.4272,316.6901,0,999,11366,0.00023228,3.409e-05,0.0,4164771,0 STARLINK-3321,1 50803U 22001A   24017.95580324  .00003409  00000-0  23228-3 0  9997,2 50803  53.2180  78.4696 0002303  43.4272 316.6901 15.08830170113663,2022-001A,50803,6917.91,95.438,541.369,538.182,1
GENERATED VIA SPACETRACK.ORG API,18 SPCS,50803,STARLINK-3321,PAYLOAD,U,22001A,2024-01-18 10:04:03,727776,15.08832189,0.0001945,53.2168,76.3833,55.3876,304.7299,0,999,11246,0.00013853,1.917e-05,0.0,4165274,0 STARLINK-3321,1 50803U 22001A   24018.41948759  .00001917  00000-0  13853-3 0  9994,2 50803  53.2168  76.3833 0001945  55.3876 304.7299 15.08832189112469,2022-001A,50803,6917.904,95.438,541.115,538.424,1
GENERATED VIA SPACETRACK.ORG API,18 SPCS,50803,STARLINK-3321,PAYLOAD,U,22001A,2024-01-19 03:33:17,986176,15.08840864,0.0001789,53.2168,73.1121,71.6282,288.4904,0,999,11384,2.5325e-05,1.15e-06,0.0,4165576,0 STARLINK-3321,1 50803U 22001A   24019.14812484  .00000115  00000-0  25325-4 0  9997,2 50803  53.2168  73.1121 0001789  71.6282 288.4904 15.08840864113845,2022-001A,50803,6917.878,95.438,540.98,538.505,1
GENERATED VIA SPACETRACK.ORG API,18 SPCS,50803,STARLINK-3321,PAYLOAD,U,22001A,2024-01-19 09:54:50,187168,15.0884364,0.0001744,53.2181,71.9227,97.1118,263.0073,0,999,11261,3.823e-05,3.2e-06,0.0,4166138,0 STARLINK-3321,1 50803U 22001A   24019.41308087  .00000320  00000-0  38230-4 0  9993,2 50803  53.2181  71.9227 0001744  97.1118 263.0073 15.08843640112610,2022-001A,50803,6917.869,95.437,540.941,538.528,1
GENERATED VIA SPACETRACK.ORG API,18 SPCS,50803,STARLINK-3321,PAYLOAD,U,22001A,2024-01-20 09:45:37,793952,15.08834093,0.0001799,53.2187,67.4634,107.6162,252.5026,0,999,11403,-1.2606e-05,-4.89e-06,0.0,4166801,0 STARLINK-3321,1 50803U 22001A   24020.40668743 -.00000489  00000-0 -12606-4 0  9999,2 50803  53.2187  67.4634 0001799 107.6162 252.5026 15.08834093114035,2022-001A,50803,6917.898,95.438,541.008,538.519,1
GENERATED VIA SPACETRACK.ORG API,18 SPCS,50803,STARLINK-3321,PAYLOAD,U,22001A,2024-01-20 09:45:37,793952,15.08834093,0.0001799,53.2187,67.4634,107.6162,252.5026,0,999,11276,-1.2606e-05,-4.89e-06,0.0,4166981,0 STARLINK-3321,1 50803U 22001A   24020.40668743 -.00000489  00000-0 -12606-4 0  9999,2 50803  53.2187  67.4634 0001799 107.6162 252.5026 15.08834093112763,2022-001A,50803,6917.898,95.438,541.008,538.519,1
GENERATED VIA SPACETRACK.ORG API,18 SPCS,50803,STARLINK-3321,PAYLOAD,U,22001A,2024-01-21 06:25:38,588736,15.08836698,0.0001552,53.2184,63.5984,84.7558,275.3611,0,999,11289,2.1791e-05,5.9e-07,0.0,4167913,0 STARLINK-3321,1 50803U 22001A   24021.26780774  .00000059  00000-0  21791-4 0  9999,2 50803  53.2184  63.5984 0001552  84.7558 275.3611 15.08836698112896,2022-001A,50803,6917.89,95.438,540.829,538.682,1
GENERATED VIA SPACETRACK.ORG API,18 SPCS,50803,STARLINK-3321,PAYLOAD,U,22001A,2024-01-21 09:36:24,587712,15.08839995,0.0001617,53.2185,63.0035,93.0137,267.104,0,999,11418,4.9901e-05,5.06e-06,0.0,4167996,0 STARLINK-3321,1 50803U 22001A   24021.40028458  .00000506  00000-0  49901-4 0  9999,2 50803  53.2185  63.0035 0001617  93.0137 267.1040 15.08839995114189,2022-001A,50803,6917.88,95.438,540.864,538.627,1
